QIANFAN-17              
1 60395U 24140S   25210.52845704  .00000149  00000+0  21182-3 0  9999
2 60395  88.9857 313.4925 0013572 233.3028 126.6877 13.50960213 49747
QIANFAN-18              
1 60396U 24140T   25210.58205564  .00000148  00000+0  21025-3 0  9995
2 60396  88.9850 313.0313 0013459 214.1311 145.8976 13.50955714 49141
QIANFAN-19              
1 61552U 24185A   25210.59087426  .00000380  00000+0  19218-3 0  9994
2 61552  88.9810  93.5618 0008610  36.5565 323.6208 14.14112940 50424
QIANFAN-20              
1 61553U 24185B   25210.59429365  .00000330  00000+0  18383-3 0  9994
2 61553  88.9810  93.7478 0008115  64.5652 295.6370 14.08665018 50328
QIANFAN-21              
1 61554U 24185C   25210.56237906  .00000611  00000+0  26798-3 0  9991
2 61554  88.9724  92.9492 0013172  85.3851 274.8845 14.22358017 50613
QIANFAN-22              
1 61555U 24185D   25210.58498706  .00000210  00000+0  17060-3 0  9998
2 61555  88.9795  94.1819 0008817  58.0626 302.1402 13.86235360 50074
QIANFAN-23              
1 61556U 24185E   25210.54518654  .00000478  00000+0  23511-3 0  9994
2 61556  88.9802  93.4397 0009790  45.4996 314.6990 14.16083497 50478
QIANFAN-24              
1 61557U 24185F   25210.53950912  .00000503  00000+0  21474-3 0  9996
2 61557  88.9783  93.0684 0011074  33.7456 326.4439 14.23560724 50640
